{"fetched_at":"2026-03-29T16:36:15Z","count":15609,"tles":[{"name":"STARLINK-31888","line1":"1 59788U 24093G   26087.75199302  .00000407  00000+0  24300-4 0  9997","line2":"2 59788  43.0044 100.9959 0000962 275.2951  84.7790 15.27572928105611","category":"Starlink"}]}